CCSDS_OMM_VERS = 2.0
CREATION_DATE  = 
ORIGINATOR     = 

OBJECT_NAME    = ALOS-2
OBJECT_ID      = 2014-029A
CENTER_NAME    = EARTH
REF_FRAME      = TEME
TIME_SYSTEM    = UTC
MEAN_ELEMENT_THEORY = SGP/SGP4

EPOCH          = 2026-03-17T03:47:47.323104
MEAN_MOTION    = 14.79534733
ECCENTRICITY   = .0001437
INCLINATION    = 97.9192
RA_OF_ASC_NODE = 174.6468
ARG_OF_PERICENTER = 93.9590
MEAN_ANOMALY   = 266.1786

EPHEMERIS_TYPE = 0
CLASSIFICATION_TYPE = U
NORAD_CAT_ID   = 39766
ELEMENT_SET_NO = 999
REV_AT_EPOCH   = 63797
BSTAR          = .23614E-3
MEAN_MOTION_DOT = .1715E-4
MEAN_MOTION_DDOT = 0

CCSDS_OMM_VERS = 2.0
CREATION_DATE  = 
ORIGINATOR     = 

OBJECT_NAME    = YAOGAN-29
OBJECT_ID      = 2015-069A
CENTER_NAME    = EARTH
REF_FRAME      = TEME
TIME_SYSTEM    = UTC
MEAN_ELEMENT_THEORY = SGP/SGP4

EPOCH          = 2026-03-17T05:11:36.204864
MEAN_MOTION    = 14.83003350
ECCENTRICITY   = .0001424
INCLINATION    = 98.0137
RA_OF_ASC_NODE = 104.6660
ARG_OF_PERICENTER = 22.7273
MEAN_ANOMALY   = 337.4003

EPHEMERIS_TYPE = 0
CLASSIFICATION_TYPE = U
NORAD_CAT_ID   = 41038
ELEMENT_SET_NO = 999
REV_AT_EPOCH   = 55699
BSTAR          = .42161E-4
MEAN_MOTION_DOT = .288E-5
MEAN_MOTION_DDOT = 0

CCSDS_OMM_VERS = 2.0
CREATION_DATE  = 
ORIGINATOR     = 

OBJECT_NAME    = ASTRO-H (HITOMI)
OBJECT_ID      = 2016-012A
CENTER_NAME    = EARTH
REF_FRAME      = TEME
TIME_SYSTEM    = UTC
MEAN_ELEMENT_THEORY = SGP/SGP4

EPOCH          = 2026-03-16T23:18:47.246688
MEAN_MOTION    = 15.10055043
ECCENTRICITY   = .000966
INCLINATION    = 30.9999
RA_OF_ASC_NODE = 309.5569
ARG_OF_PERICENTER = 43.9666
MEAN_ANOMALY   = 316.1739

EPHEMERIS_TYPE = 0
CLASSIFICATION_TYPE = U
NORAD_CAT_ID   = 41337
ELEMENT_SET_NO = 999
REV_AT_EPOCH   = 55333
BSTAR          = .15721E-3
MEAN_MOTION_DOT = .2718E-4
MEAN_MOTION_DDOT = 0

CCSDS_OMM_VERS = 2.0
CREATION_DATE  = 
ORIGINATOR     = 

OBJECT_NAME    = HXMT (HUIYAN)
OBJECT_ID      = 2017-034A
CENTER_NAME    = EARTH
REF_FRAME      = TEME
TIME_SYSTEM    = UTC
MEAN_ELEMENT_THEORY = SGP/SGP4

EPOCH          = 2026-03-17T03:35:16.431936
MEAN_MOTION    = 15.17572874
ECCENTRICITY   = .0033202
INCLINATION    = 43.0159
RA_OF_ASC_NODE = 335.1980
ARG_OF_PERICENTER = 281.3032
MEAN_ANOMALY   = 78.4086

EPHEMERIS_TYPE = 0
CLASSIFICATION_TYPE = U
NORAD_CAT_ID   = 42758
ELEMENT_SET_NO = 999
REV_AT_EPOCH   = 48367
BSTAR          = .23879E-3
MEAN_MOTION_DOT = .4712E-4
MEAN_MOTION_DDOT = 0

CCSDS_OMM_VERS = 2.0
CREATION_DATE  = 
ORIGINATOR     = 

OBJECT_NAME    = SAOCOM 1A
OBJECT_ID      = 2018-076A
CENTER_NAME    = EARTH
REF_FRAME      = TEME
TIME_SYSTEM    = UTC
MEAN_ELEMENT_THEORY = SGP/SGP4

EPOCH          = 2026-03-17T04:28:48.371808
MEAN_MOTION    = 14.82146889
ECCENTRICITY   = .0001424
INCLINATION    = 97.8896
RA_OF_ASC_NODE = 264.2532
ARG_OF_PERICENTER = 85.6948
MEAN_ANOMALY   = 274.4428

EPHEMERIS_TYPE = 0
CLASSIFICATION_TYPE = U
NORAD_CAT_ID   = 43641
ELEMENT_SET_NO = 999
REV_AT_EPOCH   = 40247
BSTAR          = -.16393E-4
MEAN_MOTION_DOT = -.183E-5
MEAN_MOTION_DDOT = 0

CCSDS_OMM_VERS = 2.0
CREATION_DATE  = 
ORIGINATOR     = 

OBJECT_NAME    = H-2A R/B
OBJECT_ID      = 2018-084L
CENTER_NAME    = EARTH
REF_FRAME      = TEME
TIME_SYSTEM    = UTC
MEAN_ELEMENT_THEORY = SGP/SGP4

EPOCH          = 2026-03-16T20:57:18.311040
MEAN_MOTION    = 15.41667803
ECCENTRICITY   = .0024815
INCLINATION    = 98.8725
RA_OF_ASC_NODE = 294.7981
ARG_OF_PERICENTER = 0.7070
MEAN_ANOMALY   = 359.4203

EPHEMERIS_TYPE = 0
CLASSIFICATION_TYPE = U
NORAD_CAT_ID   = 43682
ELEMENT_SET_NO = 999
REV_AT_EPOCH   = 40688
BSTAR          = .38098E-3
MEAN_MOTION_DOT = .16138E-3
MEAN_MOTION_DDOT = 0

CCSDS_OMM_VERS = 2.0
CREATION_DATE  = 
ORIGINATOR     = 

OBJECT_NAME    = SAOCOM 1B
OBJECT_ID      = 2020-059A
CENTER_NAME    = EARTH
REF_FRAME      = TEME
TIME_SYSTEM    = UTC
MEAN_ELEMENT_THEORY = SGP/SGP4

EPOCH          = 2026-03-14T01:04:39.385920
MEAN_MOTION    = 14.82151938
ECCENTRICITY   = .00013837
INCLINATION    = 97.8899
RA_OF_ASC_NODE = 260.2532
ARG_OF_PERICENTER = 84.3427
MEAN_ANOMALY   = 275.7944

EPHEMERIS_TYPE = 0
CLASSIFICATION_TYPE = U
NORAD_CAT_ID   = 46265
ELEMENT_SET_NO = 999
REV_AT_EPOCH   = 29939
BSTAR          = .26755151E-4
MEAN_MOTION_DOT = .161E-5
MEAN_MOTION_DDOT = 0

CCSDS_OMM_VERS = 2.0
CREATION_DATE  = 
ORIGINATOR     = 

OBJECT_NAME    = CSS (TIANHE)
OBJECT_ID      = 2021-035A
CENTER_NAME    = EARTH
REF_FRAME      = TEME
TIME_SYSTEM    = UTC
MEAN_ELEMENT_THEORY = SGP/SGP4

EPOCH          = 2026-03-16T13:29:03.688800
MEAN_MOTION    = 15.61049688
ECCENTRICITY   = .0006265
INCLINATION    = 41.4671
RA_OF_ASC_NODE = 166.3358
ARG_OF_PERICENTER = 313.8090
MEAN_ANOMALY   = 46.2230

EPHEMERIS_TYPE = 0
CLASSIFICATION_TYPE = U
NORAD_CAT_ID   = 48274
ELEMENT_SET_NO = 999
REV_AT_EPOCH   = 27868
BSTAR          = .25302E-3
MEAN_MOTION_DOT = .21647E-3
MEAN_MOTION_DDOT = 0

CCSDS_OMM_VERS = 2.0
CREATION_DATE  = 
ORIGINATOR     = 

OBJECT_NAME    = COSMOS 2550
OBJECT_ID      = 2021-056A
CENTER_NAME    = EARTH
REF_FRAME      = TEME
TIME_SYSTEM    = UTC
MEAN_ELEMENT_THEORY = SGP/SGP4

EPOCH          = 2026-03-17T03:31:02.671680
MEAN_MOTION    = 15.33878800
ECCENTRICITY   = .0008297
INCLINATION    = 67.1448
RA_OF_ASC_NODE = 18.3252
ARG_OF_PERICENTER = 268.8880
MEAN_ANOMALY   = 91.1323

EPHEMERIS_TYPE = 0
CLASSIFICATION_TYPE = U
NORAD_CAT_ID   = 48865
ELEMENT_SET_NO = 999
REV_AT_EPOCH   = 26460
BSTAR          = -.37996E-6
MEAN_MOTION_DOT = -.204E-5
MEAN_MOTION_DDOT = 0

CCSDS_OMM_VERS = 2.0
CREATION_DATE  = 
ORIGINATOR     = 

OBJECT_NAME    = CZ-2C R/B
OBJECT_ID      = 2022-058K
CENTER_NAME    = EARTH
REF_FRAME      = TEME
TIME_SYSTEM    = UTC
MEAN_ELEMENT_THEORY = SGP/SGP4

EPOCH          = 2026-03-16T21:42:38.463840
MEAN_MOTION    = 15.54771257
ECCENTRICITY   = .0041966
INCLINATION    = 50.1879
RA_OF_ASC_NODE = 281.1612
ARG_OF_PERICENTER = 231.5981
MEAN_ANOMALY   = 128.1218

EPHEMERIS_TYPE = 0
CLASSIFICATION_TYPE = U
NORAD_CAT_ID   = 52794
ELEMENT_SET_NO = 999
REV_AT_EPOCH   = 21125
BSTAR          = .44728E-3
MEAN_MOTION_DOT = .31172E-3
MEAN_MOTION_DDOT = 0

CCSDS_OMM_VERS = 2.0
CREATION_DATE  = 
ORIGINATOR     = 

OBJECT_NAME    = CZ-2C R/B
OBJECT_ID      = 2022-132E
CENTER_NAME    = EARTH
REF_FRAME      = TEME
TIME_SYSTEM    = UTC
MEAN_ELEMENT_THEORY = SGP/SGP4

EPOCH          = 2026-03-16T23:51:40.875840
MEAN_MOTION    = 15.62542134
ECCENTRICITY   = .001994
INCLINATION    = 97.2950
RA_OF_ASC_NODE = 79.5356
ARG_OF_PERICENTER = 68.1935
MEAN_ANOMALY   = 292.1443

EPHEMERIS_TYPE = 0
CLASSIFICATION_TYPE = U
NORAD_CAT_ID   = 54039
ELEMENT_SET_NO = 999
REV_AT_EPOCH   = 19151
BSTAR          = .42281E-3
MEAN_MOTION_DOT = .3802E-3
MEAN_MOTION_DDOT = 0

CCSDS_OMM_VERS = 2.0
CREATION_DATE  = 
ORIGINATOR     = 

OBJECT_NAME    = GSLV R/B
OBJECT_ID      = 2022-138AN
CENTER_NAME    = EARTH
REF_FRAME      = TEME
TIME_SYSTEM    = UTC
MEAN_ELEMENT_THEORY = SGP/SGP4

EPOCH          = 2026-03-16T16:10:05.640096
MEAN_MOTION    = 14.96827402
ECCENTRICITY   = .0023699
INCLINATION    = 87.3885
RA_OF_ASC_NODE = 164.0252
ARG_OF_PERICENTER = 123.4790
MEAN_ANOMALY   = 236.8712

EPHEMERIS_TYPE = 0
CLASSIFICATION_TYPE = U
NORAD_CAT_ID   = 54149
ELEMENT_SET_NO = 999
REV_AT_EPOCH   = 18497
BSTAR          = .20291E-3
MEAN_MOTION_DOT = .2365E-4
MEAN_MOTION_DDOT = 0

